STARLINK-31678          
1 59493U 24071K   26068.14842190 -.00000025  00000+0  86252-5 0  9990
2 59493  43.0011 350.5180 0000846 274.2643  85.8112 15.27584729106854
BLUEBON                 
1 62688U 25009CH  26068.70316231  .00010452  00000+0  37313-3 0  9992
2 62688  97.4017 152.2033 0001193  43.3900 316.7434 15.29047253 63767
